[{"OBJECT_NAME":"TEVEL2-9","OBJECT_ID":"2025-052AD","EPOCH":"2026-03-09T16:51:18.321696","MEAN_MOTION":15.28633834,"ECCENTRICITY":0.000799,"INCLINATION":97.4057,"RA_OF_ASC_NODE":324.3929,"ARG_OF_PERICENTER":124.2475,"MEAN_ANOMALY":235.9522,"EPHEMERIS_TYPE":0,"CLASSIFICATION_TYPE":"U","NORAD_CAT_ID":63237,"ELEMENT_SET_NO":999,"REV_AT_EPOCH":5481,"BSTAR":0.00067240159,"MEAN_MOTION_DOT":0.00018694,"MEAN_MOTION_DDOT":0},{"OBJECT_NAME":"STARLINK-36448","OBJECT_ID":"2026-003W","EPOCH":"2026-03-09T11:55:13.353312","MEAN_MOTION":15.27602724,"ECCENTRICITY":0.00011675,"INCLINATION":42.9951,"RA_OF_ASC_NODE":228.2137,"ARG_OF_PERICENTER":207.6464,"MEAN_ANOMALY":152.4326,"EPHEMERIS_TYPE":0,"CLASSIFICATION_TYPE":"U","NORAD_CAT_ID":67354,"ELEMENT_SET_NO":999,"REV_AT_EPOCH":879,"BSTAR":0.0012194421,"MEAN_MOTION_DOT":0.0003347,"MEAN_MOTION_DDOT":0}]
